HODOYOSHI-4             
1 40011U 14033B   26195.80368686  .00001205  00000+0  13580-3 0  9992
2 40011  97.5453  19.2947 0022632 210.8298 149.1592 14.88189932652915
DEIMOS-2                
1 40013U 14033D   26195.84864750  .00000505  00000+0  52783-4 0  9992
2 40013  97.5794  69.3618 0000882 105.3229 254.8089 14.93793106641857
HODOYOSHI-3             
1 40015U 14033F   26195.39952178  .00000463  00000+0  59388-4 0  9997
2 40015  97.6444 357.3495 0031288 264.6548  95.1098 14.85436366651661
SPOT 7                  
1 40053U 14034A   26195.85092355  .00000063  00000+0  21995-4 0  9992
2 40053  98.0622 257.6279 0001596  94.5938 265.5445 14.60980162641175
SKYSAT-B                
1 40072U 14037D   26195.82894457  .00000609  00000+0  72952-4 0  9991
2 40072  98.3853 156.3733 0005522 173.8103 186.3181 14.88091579650074
WORLDVIEW-3 (WV-3)      
1 40115U 14048A   26195.86027044  .00000407  00000+0  53840-4 0  9996
2 40115  97.8557 270.3102 0001274 156.9017 203.2256 14.85063917646013
GAOFEN-2                
1 40118U 14049A   26195.87882080  .00000689  00000+0  95918-4 0  9994
2 40118  98.0104 260.0578 0008230 135.3783 224.8093 14.80928416643339
YAOGAN-21               
1 40143U 14053A   26195.88958741  .00004050  00000+0  15650-3 0  9996
2 40143  97.1462 234.9402 0007872   9.5816 350.5572 15.26757653659183
YAOGAN-22               
1 40275U 14063A   26195.41195969 -.00000071  00000+0 -63354-4 0  9993
2 40275 100.7761 347.1414 0006850 126.7841 233.3899 13.15531565563392
ASNARO                  
1 40298U 14070A   26195.81515457  .00004729  00000+0  22367-3 0  9998
2 40298  97.3450 271.1871 0006683  88.9841 271.2159 15.19825931648202
YAOGAN-24               
1 40310U 14072A   26195.87397674  .00000461  00000+0  74444-4 0  9993
2 40310  98.1517 333.4476 0014584 170.6367 189.5117 14.76118468627804
CBERS 4                 
1 40336U 14079A   26195.84821691 -.00000043  00000+0 -94892-7 0  9996
2 40336  98.3524 251.8098 0000825  52.7005 307.4256 14.35515450607920
YAOGAN-26               
1 40362U 14088A   26195.86665975  .00010951  00000+0  20806-3 0  9995
2 40362  97.0641 195.4481 0001958 342.5712  17.5471 15.48432188641980
SMAP                    
1 40376U 15003A   26195.84046597  .00000197  00000+0  47273-4 0  9998
2 40376  98.1284 202.5441 0001596  95.0412 265.0972 14.63389005611664
KOMPSAT-3A              
1 40536U 15014A   26195.91810574  .00020792  00000+0  28573-3 0  9994
2 40536  97.6886 189.3385 0056303  76.6223 284.1299 15.55415403626129
SENTINEL-2A             
1 40697U 15028A   26195.83707439 -.00000147  00000+0 -39297-4 0  9993
2 40697  98.5685 270.2949 0001271  93.7414 266.3914 14.30813531577684
GAOFEN-8                
1 40701U 15030A   26195.84665152  .00016715  00000+0  33282-3 0  9991
2 40701  97.6886  30.8966 0009999  96.7047 263.5341 15.46941673615720
CARBONITE 1 (CBNT-1)    
1 40718U 15032D   26195.83447508  .00000803  00000+0  10333-3 0  9996
2 40718  97.6512  12.7459 0013819 198.3966 161.6751 14.83666410593445
YAOGAN-27               
1 40878U 15040A   26195.85216830  .00000321  00000+0  95742-3 0  9998
2 40878 100.1162 181.0357 0008559 145.8380 214.3286 13.16073036521308
GAOFEN-9 01             
1 40894U 15047A   26195.86288279  .00000503  00000+0  67855-4 0  9997
2 40894  97.6265 230.2989 0028490  51.5338 308.8426 14.82934747584291
YAOGAN-28               
1 41026U 15064A   26195.83469633  .00004033  00000+0  15114-3 0  9998
2 41026  97.3108 333.5439 0012067  94.2598 266.0021 15.27757468594902
YAOGAN-29               
1 41038U 15069A   26195.83951910  .00000377  00000+0  52889-4 0  9998
2 41038  98.0021 224.5143 0000720  14.5866 345.5368 14.83106355574723
KENT RIDGE 1            
1 41167U 15077B   26195.27312472  .00002444  00000+0  68866-4 0  9991
2 41167  14.9803  64.5207 0008299 262.2466  97.6913 15.23280956585235
GAOFEN-4                
1 41194U 15083A   26194.68502446 -.00000340  00000+0  00000+0 0  9999
2 41194   0.4223  83.7871 0003940 124.9375  75.1281  1.00274923 38792
JASON-3                 
1 41240U 16002A   26195.88625411 -.00000024  00000+0  15089-3 0  9990
2 41240  66.0416  67.6019 0008184 270.9857  89.0224 12.87628623490816
SENTINEL-3A             
1 41335U 16011A   26195.84772786  .00000038  00000+0  33894-4 0  9998
2 41335  98.6238 262.8323 0001361  90.0014 270.1322 14.26739681542000
ZIYUAN 3-02 (ZY 3-02)   
1 41556U 16033A   26195.88076574  .00003073  00000+0  13959-3 0  9994
2 41556  97.3830 271.1225 0014040 185.9697 174.1374 15.21432688562197
CARTOSAT-2C             
1 41599U 16040A   26195.85532103  .00001514  00000+0  74971-4 0  9991
2 41599  97.4470 255.4503 0009601  46.1403 314.0623 15.19259772557913
SKYSAT-C1               
1 41601U 16040C   26195.63369730  .00005168  00000+0  14606-3 0  9992
2 41601  96.9549 225.8712 0000318 324.3548  35.7676 15.36741961562082
LAPAN-A3                
1 41603U 16040E   26195.86380791  .00001868  00000+0  60401-4 0  9997
2 41603  97.1504 191.1050 0008258 277.6802  82.3503 15.33276518559050
GAOFEN-3                
1 41727U 16049A   26195.83515468 -.00000134  00000+0 -27361-4 0  9996
2 41727  98.4011 203.2037 0001781  85.6052 274.5341 14.42218162522631
