OBJECT_NAME,OBJECT_ID,EPOCH,MEAN_MOTION,ECCENTRICITY,INCLINATION,RA_OF_ASC_NODE,ARG_OF_PERICENTER,MEAN_ANOMALY,EPHEMERIS_TYPE,CLASSIFICATION_TYPE,NORAD_CAT_ID,ELEMENT_SET_NO,REV_AT_EPOCH,BSTAR,MEAN_MOTION_DOT,MEAN_MOTION_DDOT
HODOYOSHI-4,2014-033B,2026-07-14T19:17:18.544704,14.88189932,.0022632,97.5453,19.2947,210.8298,149.1592,0,U,40011,999,65291,.1358E-3,.1205E-4,0
DEIMOS-2,2014-033D,2026-07-14T20:22:03.144000,14.93793106,.0000882,97.5794,69.3618,105.3229,254.8089,0,U,40013,999,64185,.52783E-4,.505E-5,0
HODOYOSHI-3,2014-033F,2026-07-14T09:35:18.681792,14.85436366,.00312882,97.6444,357.3495,264.6548,95.1098,0,U,40015,999,65166,.59388268E-4,.463E-5,0
SPOT 7,2014-034A,2026-07-14T20:25:19.794720,14.60980162,.0001596,98.0622,257.6279,94.5938,265.5445,0,U,40053,999,64117,.21995E-4,.63E-6,0
SKYSAT-B,2014-037D,2026-07-14T19:53:40.810848,14.88091579,.0005522,98.3853,156.3733,173.8103,186.3181,0,U,40072,999,65007,.72952E-4,.609E-5,0
WORLDVIEW-3 (WV-3),2014-048A,2026-07-14T20:38:47.366016,14.85063917,.0001274,97.8557,270.3102,156.9017,203.2256,0,U,40115,999,64601,.5384E-4,.407E-5,0
GAOFEN-2,2014-049A,2026-07-14T21:05:30.117120,14.80928416,.000823,98.0104,260.0578,135.3783,224.8093,0,U,40118,999,64333,.95918E-4,.689E-5,0
YAOGAN-21,2014-053A,2026-07-14T21:21:00.352224,15.26757653,.0007872,97.1462,234.9402,9.5816,350.5572,0,U,40143,999,65918,.1565E-3,.405E-4,0
YAOGAN-22,2014-063A,2026-07-14T09:53:13.317216,13.15531565,.00068506,100.7761,347.1414,126.7841,233.3899,0,U,40275,999,56339,-.6335426E-4,-.71E-6,0
ASNARO,2014-070A,2026-07-14T19:33:49.354848,15.19825931,.0006683,97.3450,271.1871,88.9841,271.2159,0,U,40298,999,64820,.22367E-3,.4729E-4,0
YAOGAN-24,2014-072A,2026-07-14T20:58:31.590336,14.76118468,.0014584,98.1517,333.4476,170.6367,189.5117,0,U,40310,999,62780,.74444E-4,.461E-5,0
CBERS 4,2014-079A,2026-07-14T20:21:25.941024,14.35515450,.0000825,98.3524,251.8098,52.7005,307.4256,0,U,40336,999,60792,-.94892E-7,-.43E-6,0
YAOGAN-26,2014-088A,2026-07-14T20:47:59.402400,15.48432188,.0001958,97.0641,195.4481,342.5712,17.5471,0,U,40362,999,64198,.20806E-3,.10951E-3,0
SMAP,2015-003A,2026-07-14T20:10:16.259808,14.63389005,.0001596,98.1284,202.5441,95.0412,265.0972,0,U,40376,999,61166,.47273E-4,.197E-5,0
KOMPSAT-3A,2015-014A,2026-07-14T22:02:04.335936,15.55415403,.0056303,97.6886,189.3385,76.6223,284.1299,0,U,40536,999,62612,.28573E-3,.20792E-3,0
SENTINEL-2A,2015-028A,2026-07-14T20:05:23.227296,14.30813531,.0001271,98.5685,270.2949,93.7414,266.3914,0,U,40697,999,57768,-.39297E-4,-.147E-5,0
GAOFEN-8,2015-030A,2026-07-14T20:19:10.691328,15.46941673,.0009999,97.6886,30.8966,96.7047,263.5341,0,U,40701,999,61572,.33282E-3,.16715E-3,0
CARBONITE 1 (CBNT-1),2015-032D,2026-07-14T20:01:38.646912,14.83666410,.0013819,97.6512,12.7459,198.3966,161.6751,0,U,40718,999,59344,.10333E-3,.803E-5,0
YAOGAN-27,2015-040A,2026-07-14T20:27:07.341120,13.16073036,.0008559,100.1162,181.0357,145.8380,214.3286,0,U,40878,999,52130,.95742E-3,.321E-5,0
GAOFEN-9 01,2015-047A,2026-07-14T20:42:33.073056,14.82934747,.002849,97.6265,230.2989,51.5338,308.8426,0,U,40894,999,58429,.67855E-4,.503E-5,0
YAOGAN-28,2015-064A,2026-07-14T20:01:57.762912,15.27757468,.0012067,97.3108,333.5439,94.2598,266.0021,0,U,41026,999,59490,.15114E-3,.4033E-4,0
YAOGAN-29,2015-069A,2026-07-14T20:08:54.450240,14.83106355,.000072,98.0021,224.5143,14.5866,345.5368,0,U,41038,999,57472,.52889E-4,.377E-5,0
KENT RIDGE 1,2015-077B,2026-07-14T06:33:17.975808,15.23280956,.00082992,14.9803,64.5207,262.2466,97.6913,0,U,41167,999,58523,.68866126E-4,.2444E-4,0
GAOFEN-4,2015-083A,2026-07-13T16:26:26.113344,1.00274923,.00039405,0.4223,83.7871,124.9375,75.1281,0,U,41194,999,3879,0,-.34E-5,0
JASON-3,2016-002A,2026-07-14T21:16:12.355104,12.87628623,.0008184,66.0416,67.6019,270.9857,89.0224,0,U,41240,999,49081,.15089E-3,-.24E-6,0
SENTINEL-3A,2016-011A,2026-07-14T20:20:43.687104,14.26739681,.0001361,98.6238,262.8323,90.0014,270.1322,0,U,41335,999,54200,.33894E-4,.38E-6,0
ZIYUAN 3-02 (ZY 3-02),2016-033A,2026-07-14T21:08:18.159936,15.21432688,.001404,97.3830,271.1225,185.9697,174.1374,0,U,41556,999,56219,.13959E-3,.3073E-4,0
CARTOSAT-2C,2016-040A,2026-07-14T20:31:39.736992,15.19259772,.0009601,97.4470,255.4503,46.1403,314.0623,0,U,41599,999,55791,.74971E-4,.1514E-4,0
SKYSAT-C1,2016-040C,2026-07-14T15:12:31.446720,15.36741961,.0000318,96.9549,225.8712,324.3548,35.7676,0,U,41601,999,56208,.14606E-3,.5168E-4,0
LAPAN-A3,2016-040E,2026-07-14T20:43:53.003424,15.33276518,.0008258,97.1504,191.1050,277.6802,82.3503,0,U,41603,999,55905,.60401E-4,.1868E-4,0
GAOFEN-3,2016-049A,2026-07-14T20:02:37.364352,14.42218162,.0001781,98.4011,203.2037,85.6052,274.5341,0,U,41727,999,52263,-.27361E-4,-.134E-5,0
